ICEYE-X2                
1 43800U 18099AU  26191.87430148  .00003682  00000+0  18421-3 0  9993
2 43800  97.4354 245.3001 0009281 210.9207 149.1481 15.18008941416416
ICEYE-X4                
1 44390U 19038D   26191.88001373  .00007517  00000+0  26261-3 0  9999
2 44390  97.8755 226.1924 0012426 213.7423 146.3027 15.29820280385428
ICEYE-X7                
1 46496U 20068L   26191.85477616  .00007643  00000+0  24971-3 0  9993
2 46496  97.7498 159.4663 0005611 232.0247 128.0487 15.32037853318416
ICEYE-X6                
1 46497U 20068M   26191.86698664  .00002265  00000+0  16586-3 0  9991
2 46497  98.0980 186.6726 0007592  22.3986 337.7568 15.04650022316795
ICEYE-X21               
1 55049U 23001AS  26175.21618542  .01585954  23968-5  60214-3 0  9995
2 55049  97.3001 262.6152 0012377 285.9702  74.0225 16.24069885194757
ICEYE-X25               
1 56963U 23084AH  26191.83414344  .00036492  00000+0  40986-3 0  9999
2 56963  97.5899 339.7531 0004064 199.0033 161.1073 15.62540423171660
ICEYE-X31               
1 58288U 23174AJ  26191.87020880  .00011129  00000+0  32910-3 0  9991
2 58288  97.3777 267.6146 0002276 199.0072 161.1087 15.35084787148386
ICEYE-X34               
1 58294U 23174AQ  26189.75856509  .00129633  00000+0  10776-2 0  9992
2 58294  97.3861 282.0601 0001600 191.4512 168.6714 15.69750750149128
ICEYE-X35               
1 58302U 23174AY  26191.87910309  .00039673  00000+0  59393-3 0  9990
2 58302  97.3787 277.1426 0008213 121.2798 238.9262 15.54838231149022
ICEYE-X38               
1 59100U 24043C   26191.86072284  .00002712  00000+0  15729-3 0  9992
2 59100  97.8425 336.2653 0002718  33.4007 326.7394 15.13068623115258
ICEYE-X37               
1 59102U 24043E   26191.69823473  .00001780  00000+0  12552-3 0  9994
2 59102  97.8334 329.0742 0013603 291.1963  68.7810 15.06275840128621
ICEYE-X36               
1 59103U 24043F   26191.68843753  .00002038  00000+0  13973-3 0  9992
2 59103  97.8387 330.1839 0004927 230.8872 129.1918 15.07211170128682
ICEYE-X43               
1 60539U 24149BZ  26189.77997472  .00001755  00000+0  14675-3 0  9994
2 60539  97.6814 266.4552 0006953  14.9788 345.1640 14.99772584103351
ICEYE-X39               
1 60546U 24149CG  26189.75770551  .00002756  00000+0  22606-3 0  9992
2 60546  97.6770 266.4889 0006986  63.7023 296.4918 15.00041901103354
ICEYE-X33               
1 60548U 24149CJ  26190.83635085  .00003143  00000+0  25135-3 0  9998
2 60548  97.7345 269.8614 0001952  73.3938 286.7500 15.00937312103605
