{"fetched_at":"2026-07-11T06:35:31.333Z","source":"https://celestrak.org/NORAD/elements/gp.php?NAME=ICEYE&FORMAT=JSON","constellation":"iceye","records":[{"OBJECT_NAME":"ICEYE-X2","OBJECT_ID":"2018-099AU","EPOCH":"2026-07-10T20:58:59.647872","CLASSIFICATION_TYPE":"U","MEAN_MOTION":15.18008941,"ECCENTRICITY":0.0009281,"INCLINATION":97.4354,"RA_OF_ASC_NODE":245.3001,"ARG_OF_PERICENTER":210.9207,"MEAN_ANOMALY":149.1481,"EPHEMERIS_TYPE":0,"NORAD_CAT_ID":43800,"ELEMENT_SET_NO":999,"REV_AT_EPOCH":41641,"BSTAR":0.00018421,"MEAN_MOTION_DOT":0.00003682,"MEAN_MOTION_DDOT":0},{"OBJECT_NAME":"ICEYE-X4","OBJECT_ID":"2019-038D","EPOCH":"2026-07-10T21:07:13.186272","CLASSIFICATION_TYPE":"U","MEAN_MOTION":15.2982028,"ECCENTRICITY":0.0012426,"INCLINATION":97.8755,"RA_OF_ASC_NODE":226.1924,"ARG_OF_PERICENTER":213.7423,"MEAN_ANOMALY":146.3027,"EPHEMERIS_TYPE":0,"NORAD_CAT_ID":44390,"ELEMENT_SET_NO":999,"REV_AT_EPOCH":38542,"BSTAR":0.00026261,"MEAN_MOTION_DOT":0.00007517,"MEAN_MOTION_DDOT":0},{"OBJECT_NAME":"ICEYE-X7","OBJECT_ID":"2020-068L","EPOCH":"2026-07-10T20:30:52.660224","CLASSIFICATION_TYPE":"U","MEAN_MOTION":15.32037853,"ECCENTRICITY":0.0005611,"INCLINATION":97.7498,"RA_OF_ASC_NODE":159.4663,"ARG_OF_PERICENTER":232.0247,"MEAN_ANOMALY":128.0487,"EPHEMERIS_TYPE":0,"NORAD_CAT_ID":46496,"ELEMENT_SET_NO":999,"REV_AT_EPOCH":31841,"BSTAR":0.00024971,"MEAN_MOTION_DOT":0.00007643,"MEAN_MOTION_DDOT":0},{"OBJECT_NAME":"ICEYE-X6","OBJECT_ID":"2020-068M","EPOCH":"2026-07-10T20:48:27.645696","CLASSIFICATION_TYPE":"U","MEAN_MOTION":15.04650022,"ECCENTRICITY":0.0007592,"INCLINATION":98.098,"RA_OF_ASC_NODE":186.6726,"ARG_OF_PERICENTER":22.3986,"MEAN_ANOMALY":337.7568,"EPHEMERIS_TYPE":0,"NORAD_CAT_ID":46497,"ELEMENT_SET_NO":999,"REV_AT_EPOCH":31679,"BSTAR":0.00016586,"MEAN_MOTION_DOT":0.00002265,"MEAN_MOTION_DDOT":0},{"OBJECT_NAME":"ICEYE-X21","OBJECT_ID":"2023-001AS","EPOCH":"2026-06-24T05:11:18.420288","CLASSIFICATION_TYPE":"U","MEAN_MOTION":16.24069885,"ECCENTRICITY":0.00123774,"INCLINATION":97.3001,"RA_OF_ASC_NODE":262.6152,"ARG_OF_PERICENTER":285.9702,"MEAN_ANOMALY":74.0225,"EPHEMERIS_TYPE":0,"NORAD_CAT_ID":55049,"ELEMENT_SET_NO":999,"REV_AT_EPOCH":19475,"BSTAR":0.000602142,"MEAN_MOTION_DOT":0.01585954,"MEAN_MOTION_DDOT":0.000002396838},{"OBJECT_NAME":"ICEYE-X25","OBJECT_ID":"2023-084AH","EPOCH":"2026-07-10T20:01:09.993216","CLASSIFICATION_TYPE":"U","MEAN_MOTION":15.62540423,"ECCENTRICITY":0.0004064,"INCLINATION":97.5899,"RA_OF_ASC_NODE":339.7531,"ARG_OF_PERICENTER":199.0033,"MEAN_ANOMALY":161.1073,"EPHEMERIS_TYPE":0,"NORAD_CAT_ID":56963,"ELEMENT_SET_NO":999,"REV_AT_EPOCH":17166,"BSTAR":0.00040986,"MEAN_MOTION_DOT":0.00036492,"MEAN_MOTION_DDOT":0},{"OBJECT_NAME":"ICEYE-X31","OBJECT_ID":"2023-174AJ","EPOCH":"2026-07-10T20:53:06.040320","CLASSIFICATION_TYPE":"U","MEAN_MOTION":15.35084787,"ECCENTRICITY":0.0002276,"INCLINATION":97.3777,"RA_OF_ASC_NODE":267.6146,"ARG_OF_PERICENTER":199.0072,"MEAN_ANOMALY":161.1087,"EPHEMERIS_TYPE":0,"NORAD_CAT_ID":58288,"ELEMENT_SET_NO":999,"REV_AT_EPOCH":14838,"BSTAR":0.0003291,"MEAN_MOTION_DOT":0.00011129,"MEAN_MOTION_DDOT":0},{"OBJECT_NAME":"ICEYE-X34","OBJECT_ID":"2023-174AQ","EPOCH":"2026-07-08T18:12:20.023776","CLASSIFICATION_TYPE":"U","MEAN_MOTION":15.6975075,"ECCENTRICITY":0.00016009,"INCLINATION":97.3861,"RA_OF_ASC_NODE":282.0601,"ARG_OF_PERICENTER":191.4512,"MEAN_ANOMALY":168.6714,"EPHEMERIS_TYPE":0,"NORAD_CAT_ID":58294,"ELEMENT_SET_NO":999,"REV_AT_EPOCH":14912,"BSTAR":0.001077636,"MEAN_MOTION_DOT":0.00129633,"MEAN_MOTION_DDOT":0},{"OBJECT_NAME":"ICEYE-X35","OBJECT_ID":"2023-174AY","EPOCH":"2026-07-10T21:05:54.506976","CLASSIFICATION_TYPE":"U","MEAN_MOTION":15.54838231,"ECCENTRICITY":0.0008213,"INCLINATION":97.3787,"RA_OF_ASC_NODE":277.1426,"ARG_OF_PERICENTER":121.2798,"MEAN_ANOMALY":238.9262,"EPHEMERIS_TYPE":0,"NORAD_CAT_ID":58302,"ELEMENT_SET_NO":999,"REV_AT_EPOCH":14902,"BSTAR":0.00059393,"MEAN_MOTION_DOT":0.00039673,"MEAN_MOTION_DDOT":0},{"OBJECT_NAME":"ICEYE-X38","OBJECT_ID":"2024-043C","EPOCH":"2026-07-10T20:39:26.453376","CLASSIFICATION_TYPE":"U","MEAN_MOTION":15.13068623,"ECCENTRICITY":0.0002718,"INCLINATION":97.8425,"RA_OF_ASC_NODE":336.2653,"ARG_OF_PERICENTER":33.4007,"MEAN_ANOMALY":326.7394,"EPHEMERIS_TYPE":0,"NORAD_CAT_ID":59100,"ELEMENT_SET_NO":999,"REV_AT_EPOCH":11525,"BSTAR":0.00015729,"MEAN_MOTION_DOT":0.00002712,"MEAN_MOTION_DDOT":0},{"OBJECT_NAME":"ICEYE-X37","OBJECT_ID":"2024-043E","EPOCH":"2026-07-10T16:45:27.480672","CLASSIFICATION_TYPE":"U","MEAN_MOTION":15.0627584,"ECCENTRICITY":0.0013603,"INCLINATION":97.8334,"RA_OF_ASC_NODE":329.0742,"ARG_OF_PERICENTER":291.1963,"MEAN_ANOMALY":68.781,"EPHEMERIS_TYPE":0,"NORAD_CAT_ID":59102,"ELEMENT_SET_NO":999,"REV_AT_EPOCH":12862,"BSTAR":0.00012552,"MEAN_MOTION_DOT":0.0000178,"MEAN_MOTION_DDOT":0},{"OBJECT_NAME":"ICEYE-X36","OBJECT_ID":"2024-043F","EPOCH":"2026-07-10T16:31:21.002592","CLASSIFICATION_TYPE":"U","MEAN_MOTION":15.0721117,"ECCENTRICITY":0.0004927,"INCLINATION":97.8387,"RA_OF_ASC_NODE":330.1839,"ARG_OF_PERICENTER":230.8872,"MEAN_ANOMALY":129.1918,"EPHEMERIS_TYPE":0,"NORAD_CAT_ID":59103,"ELEMENT_SET_NO":999,"REV_AT_EPOCH":12868,"BSTAR":0.00013973,"MEAN_MOTION_DOT":0.00002038,"MEAN_MOTION_DDOT":0},{"OBJECT_NAME":"ICEYE-X43","OBJECT_ID":"2024-149BZ","EPOCH":"2026-07-08T18:43:09.815808","CLASSIFICATION_TYPE":"U","MEAN_MOTION":14.99772584,"ECCENTRICITY":0.00069538,"INCLINATION":97.6814,"RA_OF_ASC_NODE":266.4552,"ARG_OF_PERICENTER":14.9788,"MEAN_ANOMALY":345.164,"EPHEMERIS_TYPE":0,"NORAD_CAT_ID":60539,"ELEMENT_SET_NO":999,"REV_AT_EPOCH":10335,"BSTAR":0.00014675091,"MEAN_MOTION_DOT":0.00001755,"MEAN_MOTION_DDOT":0},{"OBJECT_NAME":"ICEYE-X39","OBJECT_ID":"2024-149CG","EPOCH":"2026-07-08T18:11:05.756064","CLASSIFICATION_TYPE":"U","MEAN_MOTION":15.00041901,"ECCENTRICITY":0.00069867,"INCLINATION":97.677,"RA_OF_ASC_NODE":266.4889,"ARG_OF_PERICENTER":63.7023,"MEAN_ANOMALY":296.4918,"EPHEMERIS_TYPE":0,"NORAD_CAT_ID":60546,"ELEMENT_SET_NO":999,"REV_AT_EPOCH":10335,"BSTAR":0.00022606183,"MEAN_MOTION_DOT":0.00002756,"MEAN_MOTION_DDOT":0},{"OBJECT_NAME":"ICEYE-X33","OBJECT_ID":"2024-149CJ","EPOCH":"2026-07-09T20:04:20.713440","CLASSIFICATION_TYPE":"U","MEAN_MOTION":15.00937312,"ECCENTRICITY":0.0001952,"INCLINATION":97.7345,"RA_OF_ASC_NODE":269.8614,"ARG_OF_PERICENTER":73.3938,"MEAN_ANOMALY":286.75,"EPHEMERIS_TYPE":0,"NORAD_CAT_ID":60548,"ELEMENT_SET_NO":999,"REV_AT_EPOCH":10360,"BSTAR":0.00025134873,"MEAN_MOTION_DOT":0.00003143,"MEAN_MOTION_DDOT":0}]}
